KUIPER-00167            
1 65780U 25217U   25294.86671767  .00065626  00000+0  18467-2 0  9995
2 65780  51.8690 315.3322 0005385 185.4381 174.6548 15.35850250  4066
KUIPER-00168            
1 65781U 25217V   25294.90145791  .00076117  00000+0  20256-2 0  9990
2 65781  51.8727 314.8244 0002322  64.5480 295.5747 15.37526578  4070
KUIPER-00169            
1 65782U 25217W   25294.91480880  .00039897  00000+0  10967-2 0  9995
2 65782  51.8729 314.9109 0002914 143.2847 216.8339 15.36813994  4076
KUIPER-00170            
1 65783U 25217X   25294.86504726  .00043203  00000+0  12204-2 0  9998
2 65783  51.8680 315.3202 0006009 182.0513 178.0450 15.35914748  4062
KUIPER-00171            
1 65784U 25217Y   25294.91667824  .00228156  00000+0  57700-2 0  9996
2 65784  51.8692 314.9592 0004620 182.9136 158.0270 15.38367434  4199
KUIPER-00172            
1 65785U 25217Z   25294.90766710  .00043510  00000+0  11783-2 0  9990
2 65785  51.8733 314.8650 0002941 101.1789 258.9529 15.37237773  4076
KUIPER-00173            
1 65786U 25217AA  25294.91148695  .00056786  00000+0  15420-2 0  9999
2 65786  51.8720 314.8905 0002490 130.0118 230.1087 15.37034341  4079
KUIPER-00174            
1 65787U 25217AB  25294.90330805  .00043596  00000+0  11737-2 0  9997
2 65787  51.8732 314.8348 0003350  77.2822 282.8539 15.37417030  4070
